NORAD_CAT_ID,OBJECT_NAME,OBJECT_TYPE,EPOCH,MEAN_MOTION,ECCENTRICITY,INCLINATION,RA_OF_ASC_NODE,ARG_OF_PERICENTER,MEAN_ANOMALY,BSTAR,MEAN_MOTION_DOT,MEAN_MOTION_DDOT,TLE_LINE0,TLE_LINE1,TLE_LINE2,SEMIMAJOR_AXIS,PERIOD,APOGEE,PERIGEE,DECAYED
52266.0,STARLINK-3739,PAYLOAD,2024-07-22 14:24:07,15.0884289,0.0001478,53.2155,260.5844,85.1214,274.9947,0.00012468,1.697e-05,0.0,0 STARLINK-3739,1 52266U 22041F   24204.60008587  .00001697  00000-0  12468-3 0  9993,2 52266  53.2155 260.5844 0001478  85.1214 274.9947 15.08842890124525,6917.872,95.437,540.759,538.714,0.0
52266.0,STARLINK-3739,PAYLOAD,2024-07-23 09:28:44,15.08848353,0.0001569,53.2153,257.016,76.403,283.7137,0.00011299,1.511e-05,0.0,0 STARLINK-3739,1 52266U 22041F   24205.39496195  .00001511  00000-0  11299-3 0  9992,2 52266  53.2153 257.0160 0001569  76.4030 283.7137 15.08848353124647,6917.855,95.437,540.805,538.634,0.0
52266.0,STARLINK-3739,PAYLOAD,2024-07-24 02:57:59,15.08831725,0.0001593,53.2143,253.7468,72.4133,287.7033,0.00015224,2.135e-05,0.0,0 STARLINK-3739,1 52266U 22041F   24206.12361095  .00002135  00000-0  15224-3 0  9999,2 52266  53.2143 253.7468 0001593  72.4133 287.7033 15.08831725125989,6917.906,95.438,540.873,538.669,0.0
52266.0,STARLINK-3739,PAYLOAD,2024-07-24 09:19:32,15.08834752,0.0001423,53.2163,252.5558,72.4711,287.6436,-5.4373e-06,-3.74e-06,0.0,0 STARLINK-3739,1 52266U 22041F   24206.38857548 -.00000374  00000-0 -54373-5 0  9995,2 52266  53.2163 252.5558 0001423  72.4711 287.6436 15.08834752124799,6917.896,95.438,540.746,538.777,0.0
52266.0,STARLINK-3739,PAYLOAD,2024-07-25 12:21:04,15.08855325,0.0001536,53.2159,247.4978,101.4872,258.6293,1.1637e-05,-1.03e-06,0.0,0 STARLINK-3739,1 52266U 22041F   24207.51464067 -.00000103  00000-0  11637-4 0  9995,2 52266  53.2159 247.4978 0001536 101.4872 258.6293 15.08855325126193,6917.834,95.437,540.761,538.636,0.0
52266.0,STARLINK-3739,PAYLOAD,2024-07-26 10:36:29,15.08843147,0.0001535,53.2161,243.3345,97.9092,262.2074,0.00014902,2.085e-05,0.0,0 STARLINK-3739,1 52266U 22041F   24208.44200526  .00002085  00000-0  14902-3 0  9993,2 52266  53.2161 243.3345 0001535  97.9092 262.2074 15.08843147126334,6917.871,95.437,540.798,538.674,0.0
52266.0,STARLINK-3739,PAYLOAD,2024-07-27 05:41:06,15.08844194,0.0001512,53.2158,239.7662,96.9846,263.1318,2.9012e-05,1.74e-06,0.0,0 STARLINK-3739,1 52266U 22041F   24209.23688586  .00000174  00000-0  29012-4 0  9993,2 52266  53.2158 239.7662 0001512  96.9846 263.1318 15.08844194125223,6917.868,95.437,540.779,538.687,0.0
52266.0,STARLINK-3739,PAYLOAD,2024-07-27 08:51:53,15.08842231,0.0001456,53.2159,239.1718,94.8562,265.2596,-6.7563e-06,-3.96e-06,0.0,0 STARLINK-3739,1 52266U 22041F   24209.36936710 -.00000396  00000-0 -67563-5 0  9994,2 52266  53.2159 239.1718 0001456  94.8562 265.2596 15.08842231126478,6917.874,95.437,540.746,538.731,0.0
52266.0,STARLINK-3739,PAYLOAD,2024-07-27 12:02:39,15.08842813,0.0001449,53.2158,238.5771,94.2492,265.8665,-6.7799e-06,-3.96e-06,0.0,0 STARLINK-3739,1 52266U 22041F   24209.50184606 -.00000396  00000-0 -67799-5 0  9990,2 52266  53.2158 238.5771 0001449  94.2492 265.8665 15.08842813125262,6917.872,95.437,540.739,538.734,0.0
52266.0,STARLINK-3739,PAYLOAD,2024-07-28 08:42:40,15.08837449,0.0001346,53.2157,234.7129,87.6708,272.4438,1.8991e-06,-2.58e-06,0.0,0 STARLINK-3739,1 52266U 22041F   24210.36296972 -.00000258  00000-0  18991-5 0  9992,2 52266  53.2157 234.7129 0001346  87.6708 272.4438 15.08837449126620,6917.888,95.438,540.684,538.822,0.0
52266.0,STARLINK-3739,PAYLOAD,2024-07-29 10:08:50,15.08837627,0.0001254,53.2153,229.955,84.527,275.5865,2.914e-05,1.76e-06,0.0,0 STARLINK-3739,1 52266U 22041F   24211.42281141  .00000176  00000-0  29140-4 0  9997,2 52266  53.2153 229.9550 0001254  84.5270 275.5865 15.08837627126781,6917.888,95.438,540.62,538.885,0.0
52266.0,STARLINK-3739,PAYLOAD,2024-07-30 09:59:38,15.08838257,0.000123,53.2151,225.4943,84.2215,275.8917,7.1181e-05,8.45e-06,0.0,0 STARLINK-3739,1 52266U 22041F   24212.41641327  .00000845  00000-0  71181-4 0  9998,2 52266  53.2151 225.4943 0001230  84.2215 275.8917 15.08838257125708,6917.886,95.438,540.602,538.9,0.0
52266.0,STARLINK-3739,PAYLOAD,2024-07-31 05:04:15,15.08844925,0.000124,53.2151,221.9258,83.4879,276.6255,0.00010869,1.443e-05,0.0,0 STARLINK-3739,1 52266U 22041F   24213.21128825  .00001443  00000-0  10869-3 0  9990,2 52266  53.2151 221.9258 0001240  83.4879 276.6255 15.08844925127059,6917.865,95.437,540.588,538.873,0.0
52266.0,STARLINK-3739,PAYLOAD,2024-07-31 08:15:01,15.08846578,0.0001282,53.2153,221.3314,84.9233,275.1906,0.00012377,1.683e-05,0.0,0 STARLINK-3739,1 52266U 22041F   24213.34376675  .00001683  00000-0  12377-3 0  9994,2 52266  53.2153 221.3314 0001282  84.9233 275.1906 15.08846578125842,6917.86,95.437,540.612,538.838,0.0
52266.0,STARLINK-3739,PAYLOAD,2024-07-31 17:47:20,15.08842147,0.0001326,53.2155,219.5478,87.7785,272.3359,8.0376e-05,9.92e-06,0.0,0 STARLINK-3739,1 52266U 22041F   24213.74121001  .00000992  00000-0  80376-4 0  9996,2 52266  53.2155 219.5478 0001326  87.7785 272.3359 15.08842147125902,6917.874,95.437,540.656,538.822,0.0
52266.0,STARLINK-3739,PAYLOAD,2024-08-01 04:55:02,15.08839775,0.0001315,53.2153,217.4652,92.8703,267.244,2.6767e-05,1.38e-06,0.0,0 STARLINK-3739,1 52266U 22041F   24214.20489311  .00000138  00000-0  26767-4 0  9995,2 52266  53.2153 217.4652 0001315  92.8703 267.2440 15.08839775127208,6917.881,95.438,540.656,538.836,0.0
52266.0,STARLINK-3739,PAYLOAD,2024-08-01 06:30:25,15.08840438,0.0001337,53.2153,217.1681,91.884,268.2306,3.1972e-05,2.21e-06,0.0,0 STARLINK-3739,1 52266U 22041F   24214.27113256  .00000221  00000-0  31972-4 0  9991,2 52266  53.2153 217.1681 0001337  91.8840 268.2306 15.08840438125985,6917.879,95.438,540.669,538.819,0.0
52266.0,STARLINK-3739,PAYLOAD,2024-08-02 09:31:58,15.08845613,0.0001363,53.2154,212.112,93.7974,266.3174,4.6859e-05,4.58e-06,0.0,0 STARLINK-3739,1 52266U 22041F   24215.39720692  .00000458  00000-0  46859-4 0  9995,2 52266  53.2154 212.1120 0001363  93.7974 266.3174 15.08845613127385,6917.863,95.437,540.671,538.785,0.0
52266.0,STARLINK-3739,PAYLOAD,2024-08-03 04:36:36,15.0883835,0.0001398,53.2157,208.5409,100.6937,259.4212,4.5299e-05,4.33e-06,0.0,0 STARLINK-3739,1 52266U 22041F   24216.19209109  .00000433  00000-0  45299-4 0  9999,2 52266  53.2157 208.5409 0001398 100.6937 259.4212 15.08838350127502,6917.885,95.438,540.718,538.783,0.0
52266.0,STARLINK-3739,PAYLOAD,2024-08-03 09:22:46,15.08838528,0.0001438,53.2161,207.6498,99.9352,260.1803,4.0821e-05,3.62e-06,0.0,0 STARLINK-3739,1 52266U 22041F   24216.39081139  .00000362  00000-0  40821-4 0  9999,2 52266  53.2161 207.6498 0001438  99.9352 260.1803 15.08838528126300,6917.885,95.438,540.745,538.755,0.0
52266.0,STARLINK-3739,PAYLOAD,2024-08-04 06:02:47,15.08839308,0.0001321,53.2157,203.789,91.6442,268.4702,-6.4572e-06,-3.91e-06,0.0,0 STARLINK-3739,1 52266U 22041F   24217.25193489 -.00000391  00000-0 -64572-5 0  9991,2 52266  53.2157 203.7890 0001321  91.6442 268.4702 15.08839308127664,6917.883,95.438,540.661,538.834,0.0
52266.0,STARLINK-3739,PAYLOAD,2024-08-04 15:35:06,15.08839246,0.0001335,53.2155,202.0046,91.9245,268.19,-2.7388e-06,-3.31e-06,0.0,0 STARLINK-3739,1 52266U 22041F   24217.64937515 -.00000331  00000-0 -27388-5 0  9998,2 52266  53.2155 202.0046 0001335  91.9245 268.1900 15.08839246126494,6917.883,95.438,540.671,538.824,0.0
52266.0,STARLINK-3739,PAYLOAD,2024-08-05 05:53:33,15.08847605,0.000128,53.2148,199.3266,92.9121,267.2018,0.00010997,1.463e-05,0.0,0 STARLINK-3739,1 52266U 22041F   24218.24552688  .00001463  00000-0  10997-3 0  9990,2 52266  53.2148 199.3266 0001280  92.9121 267.2018 15.08847605127816,6917.857,95.437,540.608,538.837,0.0
52266.0,STARLINK-3739,PAYLOAD,2024-08-05 15:25:52,15.08837892,0.0001313,53.215,197.5414,88.4755,271.6388,5.3475e-05,5.63e-06,0.0,0 STARLINK-3739,1 52266U 22041F   24218.64297414  .00000563  00000-0  53475-4 0  9996,2 52266  53.2150 197.5414 0001313  88.4755 271.6388 15.08837892127876,6917.887,95.438,540.66,538.844,0.0
52266.0,STARLINK-3739,PAYLOAD,2024-08-06 05:44:23,15.08818788,0.0001298,53.2151,194.8667,89.4117,270.7024,-8.9953e-05,-1.718e-05,0.0,0 STARLINK-3739,1 52266U 22041F   24219.23915730 -.00001718  00000-0 -89953-4 0  9995,2 52266  53.2151 194.8667 0001298  89.4117 270.7024 15.08818788127962,6917.945,95.439,540.708,538.912,0.0
52266.0,STARLINK-3739,PAYLOAD,2024-08-07 02:24:22,15.08841905,0.0001373,53.2155,191.0009,91.6349,268.48,8.5987e-05,1.081e-05,0.0,0 STARLINK-3739,1 52266U 22041F   24220.10026445  .00001081  00000-0  85987-4 0  9993,2 52266  53.2155 191.0009 0001373  91.6349 268.4800 15.08841905128099,6917.875,95.437,540.689,538.79,0.0
52266.0,STARLINK-3739,PAYLOAD,2024-08-07 05:35:09,15.08844912,0.0001353,53.215,190.4053,86.2112,273.9035,0.00015765,2.222e-05,0.0,0 STARLINK-3739,1 52266U 22041F   24220.23274334  .00002222  00000-0  15765-3 0  9993,2 52266  53.2150 190.4053 0001353  86.2112 273.9035 15.08844912126889,6917.865,95.437,540.666,538.794,0.0
52266.0,STARLINK-3739,PAYLOAD,2024-08-08 05:25:55,15.08862823,0.0001423,53.2148,185.9449,83.017,277.0984,0.00065361,0.00010136,0.0,0 STARLINK-3739,1 52266U 22041F   24221.22634083  .00010136  00000-0  65361-3 0  9994,2 52266  53.2148 185.9449 0001423  83.0170 277.0984 15.08862823127038,6917.811,95.436,540.66,538.691,0.0
52266.0,STARLINK-3739,PAYLOAD,2024-08-09 03:41:19,15.08855442,0.000157,53.216,181.7798,91.3028,268.8144,0.00037937,5.757e-05,0.0,0 STARLINK-3739,1 52266U 22041F   24222.15369809  .00005757  00000-0  37937-3 0  9999,2 52266  53.2160 181.7798 0001570  91.3028 268.8144 15.08855442128407,6917.833,95.437,540.784,538.612,0.0
52266.0,STARLINK-3739,PAYLOAD,2024-08-09 21:10:33,15.0884518,0.0001759,53.2176,178.5085,100.7275,259.3915,4.7143e-05,4.62e-06,0.0,0 STARLINK-3739,1 52266U 22041F   24222.88233718  .00000462  00000-0  47143-4 0  9997,2 52266  53.2176 178.5085 0001759 100.7275 259.3915 15.08845180128516,6917.865,95.437,540.946,538.513,0.0
